OBJECT_NAME,OBJECT_ID,EPOCH,MEAN_MOTION,ECCENTRICITY,INCLINATION,RA_OF_ASC_NODE,ARG_OF_PERICENTER,MEAN_ANOMALY,EPHEMERIS_TYPE,CLASSIFICATION_TYPE,NORAD_CAT_ID,ELEMENT_SET_NO,REV_AT_EPOCH,BSTAR,MEAN_MOTION_DOT,MEAN_MOTION_DDOT
ONEWEB-0310,2021-075X,2026-07-13T20:13:01.693344,13.12444082,.000186,87.8961,345.3788,96.2243,263.9097,0,U,49096,999,23868,-.70582E-3,-.241E-5,0
ONEWEB-0311,2021-075Y,2026-07-13T19:48:26.770176,13.17647301,.0001745,87.9141,0.5633,78.4804,281.6523,0,U,49097,999,23713,-.9333E-4,-.23E-6,0
ONEWEB-0312,2021-075Z,2026-07-13T20:10:19.466976,13.17648085,.0002046,87.9141,0.5706,85.5448,274.5917,0,U,49098,999,23711,-.24646E-4,.3E-7,0
ONEWEB-0313,2021-075AA,2026-07-13T20:17:24.187776,13.17649672,.0001823,87.9138,0.5740,88.0780,272.0560,0,U,49099,999,23710,-.90852E-4,-.22E-6,0
ONEWEB-0314,2021-075AB,2026-07-13T12:11:36.516192,13.17650335,.00020596,87.9151,0.6171,82.9922,277.1444,0,U,49100,999,23703,-.13438605E-3,-.39E-6,0
ONEWEB-0315,2021-075AC,2026-07-13T19:34:00.018336,13.12441436,.0001608,87.8968,345.3506,87.3189,272.8124,0,U,49101,999,23866,-.21171E-3,-.63E-6,0
ONEWEB-0316,2021-075AD,2026-07-13T18:59:54.519072,13.18685700,.0001969,87.9189,330.1648,98.7999,261.3356,0,U,49102,999,24071,-.76244E-5,.1E-6,0
ONEWEB-0317,2021-075AE,2026-07-13T19:38:52.757088,13.12441378,.000242,87.8964,345.3733,108.5997,251.5395,0,U,49103,999,23868,-.64639E-3,-.22E-5,0
ONEWEB-0318,2021-075AF,2026-07-13T20:44:07.039968,13.18686455,.0001797,87.9194,330.1524,93.4609,266.6729,0,U,49104,999,24068,-.19993E-4,.5E-7,0
ONEWEB-0319,2021-075AG,2026-07-13T19:50:52.316160,13.17647813,.0001562,87.9144,0.5677,78.0423,282.0884,0,U,49105,999,23711,.80824E-4,.44E-6,0
ONEWEB-0323,2021-075AH,2026-07-13T21:01:50.140128,13.12442031,.0001689,87.8971,345.3432,76.7950,283.3367,0,U,49106,999,23805,.91103E-3,.34E-5,0
ONEWEB-0329,2021-075AJ,2026-07-13T20:03:00.726912,13.17650462,.0001938,87.9146,0.5671,88.1657,271.9696,0,U,49107,999,23709,.40317E-4,.29E-6,0
ONEWEB-0330,2021-075AK,2026-07-13T12:50:39.916608,13.17646811,.0002006,87.9143,0.6377,89.2576,270.8786,0,U,49108,999,23709,.16672E-3,.78E-6,0
ONEWEB-0292,2021-083A,2026-07-13T19:51:54.150912,13.13470025,.0001817,87.8974,314.9362,97.1012,263.0323,0,U,49186,999,23442,-.83363E-3,-.292E-5,0
ONEWEB-0303,2021-083B,2026-07-13T20:39:14.537088,13.18684291,.0001805,87.9193,330.1515,93.5743,266.5596,0,U,49187,999,23349,-.9232E-5,.9E-7,0
ONEWEB-0306,2021-083C,2026-07-13T20:24:41.380416,13.18684605,.0002101,87.9198,330.1428,101.9658,258.1710,0,U,49188,999,23353,-.20389E-3,-.67E-6,0
ONEWEB-0307,2021-083D,2026-07-13T19:43:21.449856,13.13468407,.0001921,87.8976,314.9350,96.7028,263.4320,0,U,49189,999,23442,-.82209E-3,-.287E-5,0
ONEWEB-0320,2021-083E,2026-07-13T19:04:32.917152,13.18687082,.0001923,87.9185,330.1693,98.9998,261.1352,0,U,49190,999,23348,-.2547E-4,.3E-7,0
ONEWEB-0321,2021-083F,2026-07-13T17:10:55.430112,13.20772379,.0002056,87.9186,269.1489,104.2825,255.8537,0,U,49191,999,24033,.26387E-3,.12E-5,0
ONEWEB-0322,2021-083G,2026-07-13T19:37:17.163264,13.13470198,.0002022,87.8978,314.9351,114.0845,246.0495,0,U,49192,999,23441,-.71231E-3,-.247E-5,0
ONEWEB-0324,2021-083H,2026-07-13T20:14:59.097984,13.18686653,.0002051,87.9198,330.1496,94.6005,265.5362,0,U,49193,999,23351,-.38264E-4,-.2E-7,0
ONEWEB-0325,2021-083J,2026-07-13T20:19:49.713024,13.18687453,.0001835,87.9188,330.1545,100.1467,259.9872,0,U,49194,999,23352,-.99934E-4,-.26E-6,0
ONEWEB-0326,2021-083K,2026-07-13T20:41:54.320064,13.18686458,.000167,87.9195,330.1516,92.3695,267.7629,0,U,49195,999,23351,.34137E-4,.26E-6,0
ONEWEB-0327,2021-083L,2026-07-13T20:41:30.097824,13.18686424,.0001493,87.9185,330.1535,92.4193,267.7110,0,U,49196,999,23353,.1089E-3,.56E-6,0
ONEWEB-0328,2021-083M,2026-07-13T21:12:21.436416,13.13468941,.0002043,87.8986,314.8983,98.0137,262.1224,0,U,49197,999,23440,-.31697E-3,-.103E-5,0
ONEWEB-0331,2021-083N,2026-07-13T20:31:58.325088,13.18684526,.0001737,87.9197,330.1470,87.3630,272.7701,0,U,49198,999,23352,-.54236E-4,-.8E-7,0
ONEWEB-0333,2021-083P,2026-07-13T19:15:20.930112,13.13469005,.0001871,87.8977,314.9380,100.4903,259.6437,0,U,49199,999,23440,.12929E-3,.6E-6,0
ONEWEB-0334,2021-083Q,2026-07-13T17:31:30.455040,13.20769184,.0002373,87.9189,269.1557,117.0266,243.1109,0,U,49200,999,24029,-.22182E-4,.4E-7,0
ONEWEB-0335,2021-083R,2026-07-13T19:08:01.843584,13.13467133,.000179,87.8975,314.9361,94.7564,265.3770,0,U,49201,999,23441,.11748E-2,.442E-5,0
ONEWEB-0336,2021-083S,2026-07-13T20:16:16.966848,13.13469254,.0001858,87.8974,314.9219,90.6714,269.4628,0,U,49202,999,23441,.88167E-4,.45E-6,0
ONEWEB-0337,2021-083T,2026-07-13T20:30:43.691040,13.13469502,.0002057,87.8974,314.9256,95.1449,264.9915,0,U,49203,999,23441,.70572E-3,.27E-5,0
